<?xml version="1.0" ?>
<kml xmlns="http://www.opengis.net/kml/2.2">
  <Document>
    <name>courses</name>
    <open>1</open>
    <Style id="default">
      <IconStyle>
        <scale>1.2</scale>
      </IconStyle>
      <LineStyle>
        <color>ff00ffff</color>
      </LineStyle>
      <PolyStyle>
        <color>ff7fffff</color>
      </PolyStyle>
    </Style>
    <StyleMap id="default0">
      <Pair>
        <key>normal</key>
        <styleUrl>#default</styleUrl>
      </Pair>
      <Pair>
        <key>highlight</key>
        <styleUrl>#hl</styleUrl>
      </Pair>
    </StyleMap>
    <Style id="hl">
      <IconStyle>
        <scale>1.2</scale>
      </IconStyle>
      <LineStyle>
        <color>ff00ffff</color>
      </LineStyle>
      <PolyStyle>
        <color>ff7fffff</color>
      </PolyStyle>
    </Style>
    <Folder id="277">
      <name>9K Heerenveens Kanaal</name>
      <open>1</open>
      <description>rownative.icu
Created with KML Creator Tool</description>
      <Placemark>
        <name>Start</name>
        <description>Start</description>
        <styleUrl>#default0</styleUrl>
        <Polygon>
          <tessellate>1</tessellate>
          <outerBoundaryIs>
            <LinearRing>
              <coordinates>5.8870221499427835,52.97897913800225,0 5.88702749056291,52.97894238318268,0 5.887043350151251,52.978906745139696,0 5.8870692468222385,52.97887330671721,0 5.88710439371863,52.97884308392477,0 5.887147722919764,52.97881699506663,0 5.887197917889789,52.97879583283954,0 5.88725345347994,52.978780240247055,0 5.887312642269413,52.978770691062216,0 5.887373685836793,52.97876747543218,0 5.8874347294041725,52.978770691062216,0 5.887493918193646,52.978780240247055,0 5.887549453783797,52.97879583283954,0 5.887599648753822,52.97881699506663,0 5.887642977954956,52.97884308392477,0 5.887678124851347,52.97887330671721,0 5.887704021522334,52.978906745139696,0 5.887719881110676,52.97894238318268,0 5.887725221730802,52.97897913800225,0 5.887719881110676,52.97901589282183,0 5.887704021522334,52.97905153086481,0 5.887678124851347,52.97908496928729,0 5.887642977954956,52.97911519207973,0 5.887599648753822,52.979141280937874,0 5.887549453783797,52.97916244316497,0 5.887493918193646,52.97917803575745,0 5.8874347294041725,52.97918758494229,0 5.887373685836793,52.979190800572326,0 5.887373685836793,52.979190800572326,0 5.887312642269413,52.97918758494229,0 5.88725345347994,52.97917803575745,0 5.887197917889789,52.97916244316497,0 5.887147722919764,52.979141280937874,0 5.88710439371863,52.97911519207973,0 5.8870692468222385,52.97908496928729,0 5.887043350151251,52.97905153086481,0 5.88702749056291,52.97901589282183,0 5.8870221499427835,52.97897913800225,0</coordinates>
            </LinearRing>
          </outerBoundaryIs>
        </Polygon>
      </Placemark>
      <Placemark>
        <name>WP1</name>
        <description>Finish</description>
        <styleUrl>#default0</styleUrl>
        <Polygon>
          <tessellate>1</tessellate>
          <outerBoundaryIs>
            <LinearRing>
              <coordinates>5.808367251927689,53.0436951638525,0 5.808382399614601,53.04359107177134,0 5.8084273824205335,53.043490142475385,0 5.808500833565692,53.04339544265024,0 5.808600521274198,53.04330984970215,0 5.808723416585473,53.04323596432955,0 5.808865785387673,53.04317603150208,0 5.809023301876784,53.04313187224838,0 5.809191179993992,53.04310482832504,0 5.809364318847656,53.043095721447976,0 5.80953745770132,53.04310482832504,0 5.809705335818529,53.04313187224838,0 5.809862852307639,53.04317603150208,0 5.810005221109839,53.04323596432955,0 5.810128116421114,53.04330984970215,0 5.810227804129621,53.04339544265024,0 5.810301255274779,53.043490142475385,0 5.810346238080712,53.04359107177134,0 5.8103613857676235,53.0436951638525,0 5.810346238080712,53.043799255933656,0 5.810301255274779,53.04390018522961,0 5.810227804129621,53.04399488505476,0 5.810128116421114,53.04408047800285,0 5.810005221109839,53.04415436337545,0 5.809862852307639,53.04421429620292,0 5.809705335818529,53.044258455456614,0 5.80953745770132,53.04428549937995,0 5.809364318847656,53.04429460625702,0 5.809364318847656,53.04429460625702,0 5.809191179993992,53.04428549937995,0 5.809023301876784,53.044258455456614,0 5.808865785387673,53.04421429620292,0 5.808723416585473,53.04415436337545,0 5.808600521274198,53.04408047800285,0 5.808500833565692,53.04399488505476,0 5.8084273824205335,53.04390018522961,0 5.808382399614601,53.043799255933656,0 5.808367251927689,53.0436951638525,0</coordinates>
            </LinearRing>
          </outerBoundaryIs>
        </Polygon>
      </Placemark>
      <Placemark>
        <name>Finish</name>
        <description>Route</description>
        <styleUrl>#default0</styleUrl>
        <Polygon>
          <tessellate>1</tessellate>
          <outerBoundaryIs>
            <LinearRing>
              <coordinates>5.867546796798707,52.99837391686009,0 5.865594148635864,53.0005498770596,0 5.887341499328613,52.97897396994933,0 5.88742733001709,52.98120904399998,0 5.882234573364258,52.987190205201216,0 5.886826515197755,52.98309520150456,0 5.885646343231202,52.98459373369603,0 5.857665538787843,53.016914490145126,0 5.856710672378541,53.0175857263962,0 5.849039554595947,53.02413618579287,0 5.847601890563965,53.02485893417861,0 5.842537879943848,53.027523964195545,0 5.837152004241943,53.03067919846656,0 5.8316802978515625,53.03380839505212,0 5.826165676116944,53.03696316957332,0 5.822153091430665,53.03897591123212,0 5.818172693252564,53.040620870694546,0 5.809696912765504,53.043484885628445,0 5.867546796798707,52.99837391686009,0</coordinates>
            </LinearRing>
          </outerBoundaryIs>
        </Polygon>
      </Placemark>
    </Folder>
  </Document>
</kml>
